[
  {
    "OBJECT_NAME": "STARLINK-6308",
    "OBJECT_ID": "23065AH",
    "EPOCH": "2025-11-11T04:18:10.751040",
    "MEAN_MOTION": 15.02540115,
    "ECCENTRICITY": 0.000102,
    "INCLINATION": 43.0032,
    "RA_OF_ASC_NODE": 121.623,
    "ARG_OF_PERICENTER": 269.9785,
    "MEAN_ANOMALY": 90.094,
    "EPHEMERIS_TYPE": 0,
    "CLASSIFICATION_TYPE": "U",
    "NORAD_CAT_ID": 56534,
    "ELEMENT_SET_NO": 999,
    "REV_AT_EPOCH": 13894,
    "BSTAR": 0.00020391999999999999,
    "MEAN_MOTION_DOT": 2.552e-05,
    "MEAN_MOTION_DDOT": 0.0,
    "TLE_LINE1": "1 56534U 23065AH  25315.17929110  .00002552  00000+0  20392-3 0  9997",
    "TLE_LINE2": "2 56534  43.0032 121.6230 0001020 269.9785  90.0940 15.02540115138942",
    "COMMENT": "Grouped by shell and plane from TLE"
  },
  {
    "OBJECT_NAME": "STARLINK-6314",
    "OBJECT_ID": "23065AM",
    "EPOCH": "2025-11-11T03:54:10.916640",
    "MEAN_MOTION": 15.02537692,
    "ECCENTRICITY": 0.000126,
    "INCLINATION": 43.0022,
    "RA_OF_ASC_NODE": 121.4924,
    "ARG_OF_PERICENTER": 271.6277,
    "MEAN_ANOMALY": 88.4421,
    "EPHEMERIS_TYPE": 0,
    "CLASSIFICATION_TYPE": "U",
    "NORAD_CAT_ID": 56538,
    "ELEMENT_SET_NO": 999,
    "REV_AT_EPOCH": 13894,
    "BSTAR": 0.00014135,
    "MEAN_MOTION_DOT": 1.706e-05,
    "MEAN_MOTION_DDOT": 0.0,
    "TLE_LINE1": "1 56538U 23065AM  25315.16262635  .00001706  00000+0  14135-3 0  9990",
    "TLE_LINE2": "2 56538  43.0022 121.4924 0001260 271.6277  88.4421 15.02537692138946",
    "COMMENT": "Grouped by shell and plane from TLE"
  },
  {
    "OBJECT_NAME": "STARLINK-30184",
    "OBJECT_ID": "23096W",
    "EPOCH": "2025-11-11T04:30:49.007808",
    "MEAN_MOTION": 15.02545589,
    "ECCENTRICITY": 9.63e-05,
    "INCLINATION": 43.0009,
    "RA_OF_ASC_NODE": 121.0329,
    "ARG_OF_PERICENTER": 258.5957,
    "MEAN_ANOMALY": 101.4777,
    "EPHEMERIS_TYPE": 0,
    "CLASSIFICATION_TYPE": "U",
    "NORAD_CAT_ID": 57310,
    "ELEMENT_SET_NO": 999,
    "REV_AT_EPOCH": 12919,
    "BSTAR": 8.310400000000001e-05,
    "MEAN_MOTION_DOT": 9.2e-06,
    "MEAN_MOTION_DDOT": 0.0,
    "TLE_LINE1": "1 57310U 23096W   25315.18806722  .00000920  00000+0  83104-4 0  9996",
    "TLE_LINE2": "2 57310  43.0009 121.0329 0000963 258.5957 101.4777 15.02545589129194",
    "COMMENT": "Grouped by shell and plane from TLE"
  },
  {
    "OBJECT_NAME": "STARLINK-30397",
    "OBJECT_ID": "23134A",
    "EPOCH": "2025-11-10T11:21:53.156160",
    "MEAN_MOTION": 15.02538747,
    "ECCENTRICITY": 0.0001237,
    "INCLINATION": 43.0031,
    "RA_OF_ASC_NODE": 125.6726,
    "ARG_OF_PERICENTER": 271.2575,
    "MEAN_ANOMALY": 88.8125,
    "EPHEMERIS_TYPE": 0,
    "CLASSIFICATION_TYPE": "U",
    "NORAD_CAT_ID": 57771,
    "ELEMENT_SET_NO": 999,
    "REV_AT_EPOCH": 12153,
    "BSTAR": 1.1282000000000001e-05,
    "MEAN_MOTION_DOT": -5.1e-07,
    "MEAN_MOTION_DDOT": 0.0,
    "TLE_LINE1": "1 57771U 23134A   25314.47353190 -.00000051  00000+0  11282-4 0  9991",
    "TLE_LINE2": "2 57771  43.0031 125.6726 0001237 271.2575  88.8125 15.02538747121537",
    "COMMENT": "Grouped by shell and plane from TLE"
  },
  {
    "OBJECT_NAME": "STARLINK-30354",
    "OBJECT_ID": "23134B",
    "EPOCH": "2025-11-10T18:03:49.396320",
    "MEAN_MOTION": 15.02528751,
    "ECCENTRICITY": 0.0001347,
    "INCLINATION": 43.0023,
    "RA_OF_ASC_NODE": 123.4653,
    "ARG_OF_PERICENTER": 256.3031,
    "MEAN_ANOMALY": 103.7661,
    "EPHEMERIS_TYPE": 0,
    "CLASSIFICATION_TYPE": "U",
    "NORAD_CAT_ID": 57772,
    "ELEMENT_SET_NO": 999,
    "REV_AT_EPOCH": 12158,
    "BSTAR": 0.0,
    "MEAN_MOTION_DOT": -4.52e-06,
    "MEAN_MOTION_DDOT": 0.0,
    "TLE_LINE1": "1 57772U 23134B   25314.75265505 -.00000452  00000+0 -18383-4 0  9990",
    "TLE_LINE2": "2 57772  43.0023 123.4653 0001347 256.3031 103.7661 15.02528751121588",
    "COMMENT": "Grouped by shell and plane from TLE"
  },
  {
    "OBJECT_NAME": "STARLINK-30383",
    "OBJECT_ID": "23134C",
    "EPOCH": "2025-11-11T04:50:06.223488",
    "MEAN_MOTION": 15.02528999,
    "ECCENTRICITY": 0.0001208,
    "INCLINATION": 43.0008,
    "RA_OF_ASC_NODE": 121.6698,
    "ARG_OF_PERICENTER": 224.596,
    "MEAN_ANOMALY": 135.4786,
    "EPHEMERIS_TYPE": 0,
    "CLASSIFICATION_TYPE": "U",
    "NORAD_CAT_ID": 57773,
    "ELEMENT_SET_NO": 999,
    "REV_AT_EPOCH": 12164,
    "BSTAR": 8.679e-05,
    "MEAN_MOTION_DOT": 9.69e-06,
    "MEAN_MOTION_DDOT": 0.0,
    "TLE_LINE1": "1 57773U 23134C   25315.20146092  .00000969  00000+0  86790-4 0  9999",
    "TLE_LINE2": "2 57773  43.0008 121.6698 0001208 224.5960 135.4786 15.02528999121646",
    "COMMENT": "Grouped by shell and plane from TLE"
  },
  {
    "OBJECT_NAME": "STARLINK-30384",
    "OBJECT_ID": "23134D",
    "EPOCH": "2025-11-10T20:41:52.318176",
    "MEAN_MOTION": 15.02538934,
    "ECCENTRICITY": 0.0001299,
    "INCLINATION": 43.0025,
    "RA_OF_ASC_NODE": 123.4307,
    "ARG_OF_PERICENTER": 263.3998,
    "MEAN_ANOMALY": 96.6696,
    "EPHEMERIS_TYPE": 0,
    "CLASSIFICATION_TYPE": "U",
    "NORAD_CAT_ID": 57774,
    "ELEMENT_SET_NO": 999,
    "REV_AT_EPOCH": 12159,
    "BSTAR": 0.00010232,
    "MEAN_MOTION_DOT": 1.179e-05,
    "MEAN_MOTION_DDOT": 0.0,
    "TLE_LINE1": "1 57774U 23134D   25314.86241109  .00001179  00000+0  10232-3 0  9997",
    "TLE_LINE2": "2 57774  43.0025 123.4307 0001299 263.3998  96.6696 15.02538934121597",
    "COMMENT": "Grouped by shell and plane from TLE"
  },
  {
    "OBJECT_NAME": "STARLINK-30305",
    "OBJECT_ID": "23134E",
    "EPOCH": "2025-11-10T20:46:39.976608",
    "MEAN_MOTION": 15.02535527,
    "ECCENTRICITY": 0.0001165,
    "INCLINATION": 43.0024,
    "RA_OF_ASC_NODE": 123.4533,
    "ARG_OF_PERICENTER": 261.2124,
    "MEAN_ANOMALY": 98.8586,
    "EPHEMERIS_TYPE": 0,
    "CLASSIFICATION_TYPE": "U",
    "NORAD_CAT_ID": 57775,
    "ELEMENT_SET_NO": 999,
    "REV_AT_EPOCH": 12159,
    "BSTAR": 0.0,
    "MEAN_MOTION_DOT": -2.4e-06,
    "MEAN_MOTION_DDOT": 0.0,
    "TLE_LINE1": "1 57775U 23134E   25314.86574047 -.00000240  00000+0 -26750-5 0  9992",
    "TLE_LINE2": "2 57775  43.0024 123.4533 0001165 261.2124  98.8586 15.02535527121595",
    "COMMENT": "Grouped by shell and plane from TLE"
  },
  {
    "OBJECT_NAME": "STARLINK-30360",
    "OBJECT_ID": "23134F",
    "EPOCH": "2025-11-10T20:37:04.587168",
    "MEAN_MOTION": 15.0252414,
    "ECCENTRICITY": 0.0001453,
    "INCLINATION": 43.0013,
    "RA_OF_ASC_NODE": 123.4016,
    "ARG_OF_PERICENTER": 260.3798,
    "MEAN_ANOMALY": 99.688,
    "EPHEMERIS_TYPE": 0,
    "CLASSIFICATION_TYPE": "U",
    "NORAD_CAT_ID": 57776,
    "ELEMENT_SET_NO": 999,
    "REV_AT_EPOCH": 12159,
    "BSTAR": 0.00015259,
    "MEAN_MOTION_DOT": 1.858e-05,
    "MEAN_MOTION_DDOT": 0.0,
    "TLE_LINE1": "1 57776U 23134F   25314.85908087  .00001858  00000+0  15259-3 0  9991",
    "TLE_LINE2": "2 57776  43.0013 123.4016 0001453 260.3798  99.6880 15.02524140121592",
    "COMMENT": "Grouped by shell and plane from TLE"
  },
  {
    "OBJECT_NAME": "STARLINK-30355",
    "OBJECT_ID": "23134G",
    "EPOCH": "2025-11-10T20:27:29.270304",
    "MEAN_MOTION": 15.02532698,
    "ECCENTRICITY": 0.0001012,
    "INCLINATION": 43.0037,
    "RA_OF_ASC_NODE": 123.3293,
    "ARG_OF_PERICENTER": 257.7349,
    "MEAN_ANOMALY": 102.338,
    "EPHEMERIS_TYPE": 0,
    "CLASSIFICATION_TYPE": "U",
    "NORAD_CAT_ID": 57777,
    "ELEMENT_SET_NO": 999,
    "REV_AT_EPOCH": 12158,
    "BSTAR": 2.1898000000000003e-05,
    "MEAN_MOTION_DOT": 9.2e-07,
    "MEAN_MOTION_DDOT": 0.0,
    "TLE_LINE1": "1 57777U 23134G   25314.85242211  .00000092  00000+0  21898-4 0  9998",
    "TLE_LINE2": "2 57777  43.0037 123.3293 0001012 257.7349 102.3380 15.02532698121581",
    "COMMENT": "Grouped by shell and plane from TLE"
  },
  {
    "OBJECT_NAME": "STARLINK-30380",
    "OBJECT_ID": "23134K",
    "EPOCH": "2025-11-10T21:24:51.379776",
    "MEAN_MOTION": 15.02533477,
    "ECCENTRICITY": 0.0001215,
    "INCLINATION": 43.0023,
    "RA_OF_ASC_NODE": 122.7865,
    "ARG_OF_PERICENTER": 262.1992,
    "MEAN_ANOMALY": 97.8713,
    "EPHEMERIS_TYPE": 0,
    "CLASSIFICATION_TYPE": "U",
    "NORAD_CAT_ID": 57780,
    "ELEMENT_SET_NO": 999,
    "REV_AT_EPOCH": 12160,
    "BSTAR": 7.956900000000001e-05,
    "MEAN_MOTION_DOT": 8.71e-06,
    "MEAN_MOTION_DDOT": 0.0,
    "TLE_LINE1": "1 57780U 23134K   25314.89226134  .00000871  00000+0  79569-4 0  9995",
    "TLE_LINE2": "2 57780  43.0023 122.7865 0001215 262.1992  97.8713 15.02533477121604",
    "COMMENT": "Grouped by shell and plane from TLE"
  },
  {
    "OBJECT_NAME": "STARLINK-30369",
    "OBJECT_ID": "23134L",
    "EPOCH": "2025-11-11T04:21:19.299168",
    "MEAN_MOTION": 15.02546046,
    "ECCENTRICITY": 0.000145,
    "INCLINATION": 43.0026,
    "RA_OF_ASC_NODE": 121.5123,
    "ARG_OF_PERICENTER": 271.6628,
    "MEAN_ANOMALY": 88.4048,
    "EPHEMERIS_TYPE": 0,
    "CLASSIFICATION_TYPE": "U",
    "NORAD_CAT_ID": 57781,
    "ELEMENT_SET_NO": 999,
    "REV_AT_EPOCH": 12164,
    "BSTAR": 0.0,
    "MEAN_MOTION_DOT": -1.047e-05,
    "MEAN_MOTION_DDOT": 0.0,
    "TLE_LINE1": "1 57781U 23134L   25315.18147337 -.00001047  00000+0 -62392-4 0  9990",
    "TLE_LINE2": "2 57781  43.0026 121.5123 0001450 271.6628  88.4048 15.02546046121641",
    "COMMENT": "Grouped by shell and plane from TLE"
  },
  {
    "OBJECT_NAME": "STARLINK-30376",
    "OBJECT_ID": "23134M",
    "EPOCH": "2025-11-11T03:52:33.587904",
    "MEAN_MOTION": 15.02535804,
    "ECCENTRICITY": 0.0001287,
    "INCLINATION": 43.0035,
    "RA_OF_ASC_NODE": 121.3757,
    "ARG_OF_PERICENTER": 267.4591,
    "MEAN_ANOMALY": 92.6104,
    "EPHEMERIS_TYPE": 0,
    "CLASSIFICATION_TYPE": "U",
    "NORAD_CAT_ID": 57782,
    "ELEMENT_SET_NO": 999,
    "REV_AT_EPOCH": 12164,
    "BSTAR": 9.6388e-05,
    "MEAN_MOTION_DOT": 1.099e-05,
    "MEAN_MOTION_DDOT": 0.0,
    "TLE_LINE1": "1 57782U 23134M   25315.16149986  .00001099  00000+0  96388-4 0  9998",
    "TLE_LINE2": "2 57782  43.0035 121.3757 0001287 267.4591  92.6104 15.02535804121643",
    "COMMENT": "Grouped by shell and plane from TLE"
  }
]